0 BREEZE-M DEB (TANK)
1 38979U 12061C   13281.07758938  .00000285  00000-0  56306-3 0  1460
2 38979 047.9489 275.3588 7239458 082.9071 347.2144 02.27554101  7348
0 BREEZE-M DEB (TANK)
1 38979U 12061C   13283.27465289  .00000293  00000-0  62983-3 0  1476
2 38979 047.9465 274.7506 7239000 083.4641 347.0479 02.27556992  7391
0 BREEZE-M DEB (TANK)
1 38979U 12061C   13283.71408868  .00000420  00000-0  68654-3 0  1478
2 38979 047.9442 274.6552 7239520 083.5454 347.0408 02.27556714  7402
0 BREEZE-M DEB (TANK)
1 38979U 12061C   13285.47168769  .00000228  00000-0  60019-3 0  1480
2 38979 047.9440 274.1430 7238526 084.0217 346.8760 02.27558811  7440
0 BREEZE-M DEB (TANK)
1 38979U 12061C   13288.10812703  .00000316  00000-0  79099-3 0  1494
2 38979 047.9410 273.4147 7237901 084.6899 346.6816 02.27562400  7508
0 BREEZE-M DEB (TANK)
1 38979U 12061C   13290.30513570  .00000287  00000-0  70942-3 0  1517
2 38979 047.9386 272.8077 7237374 085.2475 346.5288 02.27564526  7554
0 BREEZE-M DEB (TANK)
1 38979U 12061C   13290.74455777  .00000424  00000-0  72999-3 0  1505
2 38979 047.9351 272.7005 7237689 085.3341 346.5220 02.27562669  7561
0 BREEZE-M DEB (TANK)
1 38979U 12061C   13292.50211583  .00000328  00000-0  74302-3 0  1521
2 38979 047.9364 272.2009 7236804 085.8034 346.3730 02.27566474  7603
0 BREEZE-M DEB (TANK)
1 38979U 12061C   13294.69906783  .00000275  00000-0  65539-3 0  1530
2 38979 047.9343 271.5936 7236180 086.3598 346.2060 02.27568728  7653
